CCSDS_OMM_VERS = 2.0
CREATION_DATE  = 
ORIGINATOR     = 

OBJECT_NAME    = HULIANWANG DIGUI 13H
OBJECT_ID      = 2025-258H
CENTER_NAME    = EARTH
REF_FRAME      = TEME
TIME_SYSTEM    = UTC
MEAN_ELEMENT_THEORY = SGP/SGP4

EPOCH          = 2025-11-26T08:19:46.059168
MEAN_MOTION    = 14.23499725
ECCENTRICITY   = .00121625
INCLINATION    = 50.0002
RA_OF_ASC_NODE = 330.9023
ARG_OF_PERICENTER = 302.4275
MEAN_ANOMALY   = 57.5461

EPHEMERIS_TYPE = 0
CLASSIFICATION_TYPE = U
NORAD_CAT_ID   = 66419
ELEMENT_SET_NO = 999
REV_AT_EPOCH   = 232
BSTAR          = .24556757E-4
MEAN_MOTION_DOT = -.103E-5
MEAN_MOTION_DDOT = 0

CCSDS_OMM_VERS = 2.0
CREATION_DATE  = 
ORIGINATOR     = 

OBJECT_NAME    = HULIANWANG DIGUI 13J
OBJECT_ID      = 2025-258J
CENTER_NAME    = EARTH
REF_FRAME      = TEME
TIME_SYSTEM    = UTC
MEAN_ELEMENT_THEORY = SGP/SGP4

EPOCH          = 2025-11-26T09:58:57.547776
MEAN_MOTION    = 14.23467372
ECCENTRICITY   = .00114118
INCLINATION    = 50.0023
RA_OF_ASC_NODE = 330.6082
ARG_OF_PERICENTER = 309.2130
MEAN_ANOMALY   = 50.7769

EPHEMERIS_TYPE = 0
CLASSIFICATION_TYPE = U
NORAD_CAT_ID   = 66420
ELEMENT_SET_NO = 999
REV_AT_EPOCH   = 232
BSTAR          = .36070014E-4
MEAN_MOTION_DOT = -.77E-6
MEAN_MOTION_DDOT = 0

CCSDS_OMM_VERS = 2.0
CREATION_DATE  = 
ORIGINATOR     = 

OBJECT_NAME    = CZ-12 R/B
OBJECT_ID      = 2025-258K
CENTER_NAME    = EARTH
REF_FRAME      = TEME
TIME_SYSTEM    = UTC
MEAN_ELEMENT_THEORY = SGP/SGP4

EPOCH          = 2025-11-26T08:51:08.464608
MEAN_MOTION    = 14.42312979
ECCENTRICITY   = .00645657
INCLINATION    = 49.9958
RA_OF_ASC_NODE = 328.9864
ARG_OF_PERICENTER = 190.5970
MEAN_ANOMALY   = 169.3593

EPHEMERIS_TYPE = 0
CLASSIFICATION_TYPE = U
NORAD_CAT_ID   = 66421
ELEMENT_SET_NO = 999
REV_AT_EPOCH   = 235
BSTAR          = .26419347E-4
MEAN_MOTION_DOT = -.81E-6
MEAN_MOTION_DDOT = 0

CCSDS_OMM_VERS = 2.0
CREATION_DATE  = 
ORIGINATOR     = 

OBJECT_NAME    = STARLINK-35617
OBJECT_ID      = 2025-259A
CENTER_NAME    = EARTH
REF_FRAME      = TEME
TIME_SYSTEM    = UTC
MEAN_ELEMENT_THEORY = SGP/SGP4

EPOCH          = 2025-11-26T20:00:01.000224
MEAN_MOTION    = 15.73398141
ECCENTRICITY   = .0001665
INCLINATION    = 42.9996
RA_OF_ASC_NODE = 140.9114
ARG_OF_PERICENTER = 278.8168
MEAN_ANOMALY   = 142.7436

EPHEMERIS_TYPE = 0
CLASSIFICATION_TYPE = U
NORAD_CAT_ID   = 66422
ELEMENT_SET_NO = 999
REV_AT_EPOCH   = 372
BSTAR          = -.15376E-1
MEAN_MOTION_DOT = -.1909943E-1
MEAN_MOTION_DDOT = 0

CCSDS_OMM_VERS = 2.0
CREATION_DATE  = 
ORIGINATOR     = 

OBJECT_NAME    = STARLINK-35618
OBJECT_ID      = 2025-259B
CENTER_NAME    = EARTH
REF_FRAME      = TEME
TIME_SYSTEM    = UTC
MEAN_ELEMENT_THEORY = SGP/SGP4

EPOCH          = 2025-11-26T20:00:01.000224
MEAN_MOTION    = 15.73395376
ECCENTRICITY   = .0001619
INCLINATION    = 42.9996
RA_OF_ASC_NODE = 140.9070
ARG_OF_PERICENTER = 279.0475
MEAN_ANOMALY   = 144.4290

EPHEMERIS_TYPE = 0
CLASSIFICATION_TYPE = U
NORAD_CAT_ID   = 66423
ELEMENT_SET_NO = 999
REV_AT_EPOCH   = 372
BSTAR          = -.15328E-1
MEAN_MOTION_DOT = -.1904585E-1
MEAN_MOTION_DDOT = 0

CCSDS_OMM_VERS = 2.0
CREATION_DATE  = 
ORIGINATOR     = 

OBJECT_NAME    = STARLINK-35588
OBJECT_ID      = 2025-259C
CENTER_NAME    = EARTH
REF_FRAME      = TEME
TIME_SYSTEM    = UTC
MEAN_ELEMENT_THEORY = SGP/SGP4

EPOCH          = 2025-11-26T20:00:01.000224
MEAN_MOTION    = 15.73396277
ECCENTRICITY   = .0001536
INCLINATION    = 42.9995
RA_OF_ASC_NODE = 140.9027
ARG_OF_PERICENTER = 274.0827
MEAN_ANOMALY   = 151.3105

EPHEMERIS_TYPE = 0
CLASSIFICATION_TYPE = U
NORAD_CAT_ID   = 66424
ELEMENT_SET_NO = 999
REV_AT_EPOCH   = 372
BSTAR          = -.15332E-1
MEAN_MOTION_DOT = -.1905017E-1
MEAN_MOTION_DDOT = 0

CCSDS_OMM_VERS = 2.0
CREATION_DATE  = 
ORIGINATOR     = 

OBJECT_NAME    = STARLINK-35555
OBJECT_ID      = 2025-259D
CENTER_NAME    = EARTH
REF_FRAME      = TEME
TIME_SYSTEM    = UTC
MEAN_ELEMENT_THEORY = SGP/SGP4

EPOCH          = 2025-11-26T20:00:01.000224
MEAN_MOTION    = 15.73399400
ECCENTRICITY   = .0001646
INCLINATION    = 42.9996
RA_OF_ASC_NODE = 140.8965
ARG_OF_PERICENTER = 283.2740
MEAN_ANOMALY   = 144.0367

EPHEMERIS_TYPE = 0
CLASSIFICATION_TYPE = U
NORAD_CAT_ID   = 66425
ELEMENT_SET_NO = 999
REV_AT_EPOCH   = 372
BSTAR          = -.15395E-1
MEAN_MOTION_DOT = -.1912037E-1
MEAN_MOTION_DDOT = 0

CCSDS_OMM_VERS = 2.0
CREATION_DATE  = 
ORIGINATOR     = 

OBJECT_NAME    = STARLINK-35589
OBJECT_ID      = 2025-259E
CENTER_NAME    = EARTH
REF_FRAME      = TEME
TIME_SYSTEM    = UTC
MEAN_ELEMENT_THEORY = SGP/SGP4

EPOCH          = 2025-11-26T20:00:01.000224
MEAN_MOTION    = 15.73397980
ECCENTRICITY   = .000167
INCLINATION    = 42.9994
RA_OF_ASC_NODE = 140.8930
ARG_OF_PERICENTER = 276.5083
MEAN_ANOMALY   = 152.7197

EPHEMERIS_TYPE = 0
CLASSIFICATION_TYPE = U
NORAD_CAT_ID   = 66426
ELEMENT_SET_NO = 999
REV_AT_EPOCH   = 372
BSTAR          = -.15371E-1
MEAN_MOTION_DOT = -.1909402E-1
MEAN_MOTION_DDOT = 0

CCSDS_OMM_VERS = 2.0
CREATION_DATE  = 
ORIGINATOR     = 

OBJECT_NAME    = STARLINK-35611
OBJECT_ID      = 2025-259F
CENTER_NAME    = EARTH
REF_FRAME      = TEME
TIME_SYSTEM    = UTC
MEAN_ELEMENT_THEORY = SGP/SGP4

EPOCH          = 2025-11-26T20:00:01.000224
MEAN_MOTION    = 15.73396693
ECCENTRICITY   = .0001702
INCLINATION    = 42.9995
RA_OF_ASC_NODE = 140.8875
ARG_OF_PERICENTER = 280.8194
MEAN_ANOMALY   = 150.3183

EPHEMERIS_TYPE = 0
CLASSIFICATION_TYPE = U
NORAD_CAT_ID   = 66427
ELEMENT_SET_NO = 999
REV_AT_EPOCH   = 372
BSTAR          = -.15296E-1
MEAN_MOTION_DOT = -.190128E-1
MEAN_MOTION_DDOT = 0

CCSDS_OMM_VERS = 2.0
CREATION_DATE  = 
ORIGINATOR     = 

OBJECT_NAME    = STARLINK-35610
OBJECT_ID      = 2025-259G
CENTER_NAME    = EARTH
REF_FRAME      = TEME
TIME_SYSTEM    = UTC
MEAN_ELEMENT_THEORY = SGP/SGP4

EPOCH          = 2025-11-26T20:00:01.000224
MEAN_MOTION    = 15.73395236
ECCENTRICITY   = .0001641
INCLINATION    = 42.9994
RA_OF_ASC_NODE = 140.8827
ARG_OF_PERICENTER = 281.1839
MEAN_ANOMALY   = 151.8727

EPHEMERIS_TYPE = 0
CLASSIFICATION_TYPE = U
NORAD_CAT_ID   = 66428
ELEMENT_SET_NO = 999
REV_AT_EPOCH   = 372
BSTAR          = -.15287E-1
MEAN_MOTION_DOT = -.1900143E-1
MEAN_MOTION_DDOT = 0

CCSDS_OMM_VERS = 2.0
CREATION_DATE  = 
ORIGINATOR     = 

OBJECT_NAME    = STARLINK-35533
OBJECT_ID      = 2025-259H
CENTER_NAME    = EARTH
REF_FRAME      = TEME
TIME_SYSTEM    = UTC
MEAN_ELEMENT_THEORY = SGP/SGP4

EPOCH          = 2025-11-26T20:00:01.000224
MEAN_MOTION    = 15.73395192
ECCENTRICITY   = .000163
INCLINATION    = 42.9996
RA_OF_ASC_NODE = 140.8762
ARG_OF_PERICENTER = 281.4990
MEAN_ANOMALY   = 153.4827

EPHEMERIS_TYPE = 0
CLASSIFICATION_TYPE = U
NORAD_CAT_ID   = 66429
ELEMENT_SET_NO = 999
REV_AT_EPOCH   = 372
BSTAR          = -.1535E-1
MEAN_MOTION_DOT = -.1906922E-1
MEAN_MOTION_DDOT = 0

CCSDS_OMM_VERS = 2.0
CREATION_DATE  = 
ORIGINATOR     = 

OBJECT_NAME    = STARLINK-35470
OBJECT_ID      = 2025-259J
CENTER_NAME    = EARTH
REF_FRAME      = TEME
TIME_SYSTEM    = UTC
MEAN_ELEMENT_THEORY = SGP/SGP4

EPOCH          = 2025-11-26T20:00:01.000224
MEAN_MOTION    = 15.73397093
ECCENTRICITY   = .0001572
INCLINATION    = 42.9995
RA_OF_ASC_NODE = 140.8731
ARG_OF_PERICENTER = 281.9026
MEAN_ANOMALY   = 154.9870

EPHEMERIS_TYPE = 0
CLASSIFICATION_TYPE = U
NORAD_CAT_ID   = 66430
ELEMENT_SET_NO = 999
REV_AT_EPOCH   = 372
BSTAR          = -.15304E-1
MEAN_MOTION_DOT = -.1902088E-1
MEAN_MOTION_DDOT = 0

