HULIANWANG DIGUI 13H    
1 66419U 25258H   25330.34706087 -.00000103  00000+0  24557-4 0  9997
2 66419  50.0002 330.9023 0012162 302.4275  57.5461 14.23499725  2321
HULIANWANG DIGUI 13J    
1 66420U 25258J   25330.41594384 -.00000077  00000+0  36070-4 0  9995
2 66420  50.0023 330.6082 0011411 309.2130  50.7769 14.23467372  2328
CZ-12 R/B               
1 66421U 25258K   25330.36884797 -.00000081  00000+0  26419-4 0  9991
2 66421  49.9958 328.9864 0064565 190.5970 169.3593 14.42312979  2350
STARLINK-35617          
1 66422U 25259A   25330.83334491 -.01909943  00000+0 -15376-1 0  9990
2 66422  42.9996 140.9114 0001665 278.8168 142.7436 15.73398141  3720
STARLINK-35618          
1 66423U 25259B   25330.83334491 -.01904585  00000+0 -15328-1 0  9995
2 66423  42.9996 140.9070 0001619 279.0475 144.4290 15.73395376  3729
STARLINK-35588          
1 66424U 25259C   25330.83334491 -.01905017  00000+0 -15332-1 0  9992
2 66424  42.9995 140.9027 0001536 274.0827 151.3105 15.73396277  3728
STARLINK-35555          
1 66425U 25259D   25330.83334491 -.01912037  00000+0 -15395-1 0  9992
2 66425  42.9996 140.8965 0001646 283.2740 144.0367 15.73399400  3728
STARLINK-35589          
1 66426U 25259E   25330.83334491 -.01909402  00000+0 -15371-1 0  9999
2 66426  42.9994 140.8930 0001670 276.5083 152.7197 15.73397980  3729
STARLINK-35611          
1 66427U 25259F   25330.83334491 -.01901280  00000+0 -15296-1 0  9992
2 66427  42.9995 140.8875 0001702 280.8194 150.3183 15.73396693  3725
STARLINK-35610          
1 66428U 25259G   25330.83334491 -.01900143  00000+0 -15287-1 0  9990
2 66428  42.9994 140.8827 0001641 281.1839 151.8727 15.73395236  3726
STARLINK-35533          
1 66429U 25259H   25330.83334491 -.01906922  00000+0 -15350-1 0  9993
2 66429  42.9996 140.8762 0001630 281.4990 153.4827 15.73395192  3726
STARLINK-35470          
1 66430U 25259J   25330.83334491 -.01902088  00000+0 -15304-1 0  9993
2 66430  42.9995 140.8731 0001572 281.9026 154.9870 15.73397093  3729
